{
    "links": {
        "self": "http://www.neowsapp.com/rest/v1/neo/3360541?api_key=iIulBulltgU6a56xZRHN4H3l9WmuAYTsLGpBGhQ2"
    },
    "id": "3360541",
    "neo_reference_id": "3360541",
    "name": "(2006 WV29)",
    "designation": "2006 WV29",
    "nasa_jpl_url": "http://ssd.jpl.nasa.gov/sbdb.cgi?sstr=3360541",
    "absolute_magnitude_h": 26.5,
    "estimated_diameter": {
        "kilometers": {
            "estimated_diameter_min": 0.0133215567,
            "estimated_diameter_max": 0.0297879063
        },
        "meters": {
            "estimated_diameter_min": 13.3215566698,
            "estimated_diameter_max": 29.7879062798
        },
        "miles": {
            "estimated_diameter_min": 0.008277629,
            "estimated_diameter_max": 0.0185093411
        },
        "feet": {
            "estimated_diameter_min": 43.7058959846,
            "estimated_diameter_max": 97.7293544391
        }
    },
    "is_potentially_hazardous_asteroid": false,
    "close_approach_data": [
        {
            "close_approach_date": "2006-11-26",
            "close_approach_date_full": "2006-Nov-26 09:32",
            "epoch_date_close_approach": 1164533520000,
            "relative_velocity": {
                "kilometers_per_second": "16.4981252405",
                "kilometers_per_hour": "59393.2508656441",
                "miles_per_hour": "36904.6563503776"
            },
            "miss_distance": {
                "astronomical": "0.0094175114",
                "lunar": "3.6634119346",
                "kilometers": "1408839.646140718",
                "miles": "875412.3627011884"
            },
            "orbiting_body": "Earth"
        },
        {
            "close_approach_date": "2006-11-26",
            "close_approach_date_full": "2006-Nov-26 12:26",
            "epoch_date_close_approach": 1164543960000,
            "relative_velocity": {
                "kilometers_per_second": "17.4556757661",
                "kilometers_per_hour": "62840.4327580295",
                "miles_per_hour": "39046.6011212323"
            },
            "miss_distance": {
                "astronomical": "0.0073417102",
                "lunar": "2.8559252678",
                "kilometers": "1098304.208077274",
                "miles": "682454.5890594212"
            },
            "orbiting_body": "Moon"
        },
        {
            "close_approach_date": "2010-06-12",
            "close_approach_date_full": "2010-Jun-12 10:58",
            "epoch_date_close_approach": 1276340280000,
            "relative_velocity": {
                "kilometers_per_second": "21.2338698479",
                "kilometers_per_hour": "76441.931452521",
                "miles_per_hour": "47498.0434628178"
            },
            "miss_distance": {
                "astronomical": "0.1519901231",
                "lunar": "59.1241578859",
                "kilometers": "22737398.676797797",
                "miles": "14128364.3967997186"
            },
            "orbiting_body": "Earth"
        }
    ],
    "orbital_data": {
        "orbit_id": "7",
        "orbit_determination_date": "2017-04-06 09:07:32",
        "first_observation_date": "2006-11-23",
        "last_observation_date": "2006-11-25",
        "data_arc_in_days": 2,
        "observations_used": 28,
        "orbit_uncertainty": "8",
        "minimum_orbit_intersection": ".000424113",
        "jupiter_tisserand_invariant": "4.626",
        "epoch_osculation": "2454063.5",
        "eccentricity": ".558623512371091",
        "semi_major_axis": "1.379445267476568",
        "inclination": "1.198082726159305",
        "ascending_node_longitude": "75.33831358821227",
        "orbital_period": "591.7729875921685",
        "perihelion_distance": ".6088547070351286",
        "perihelion_argument": "82.0296112081778",
        "aphelion_distance": "2.150035827918007",
        "perihelion_time": "2454118.248263785040",
        "mean_anomaly": "326.6943652788061",
        "mean_motion": ".6083413868969982",
        "equinox": "J2000",
        "orbit_class": {
            "orbit_class_type": "APO",
            "orbit_class_description": "Near-Earth asteroid orbits which cross the Earth’s orbit similar to that of 1862 Apollo",
            "orbit_class_range": "a (semi-major axis) > 1.0 AU; q (perihelion) < 1.017 AU"
        }
    },
    "is_sentry_object": false
}